$$SOE
2460728.500000000, A.D. 2025-Feb-22 00:00:00.0000, -1.891020849153347E+08, 4.562454385890189E+08, -1.003709279773142E+08,
2460735.500000000, A.D. 2025-Mar-01 00:00:00.0000, -1.974865749076146E+08, 4.520485839713301E+08, -1.019190441678814E+08,
2460742.500000000, A.D. 2025-Mar-08 00:00:00.0000, -2.057958915206664E+08, 4.476801275388988E+08, -1.034283953062536E+08,
2460749.500000000, A.D. 2025-Mar-15 00:00:00.0000, -2.140267548620654E+08, 4.431414569517489E+08, -1.048983466449321E+08,
2460756.500000000, A.D. 2025-Mar-22 00:00:00.0000, -2.221758997889627E+08, 4.384340195660656E+08, -1.063282733953342E+08,
2460763.500000000, A.D. 2025-Mar-29 00:00:00.0000, -2.302400774608011E+08, 4.335593207537448E+08, -1.077175609753706E+08,
2460770.500000000, A.D. 2025-Apr-05 00:00:00.0000, -2.382160552154112E+08, 4.285189231105189E+08, -1.090656053445677E+08,
2460777.500000000, A.D. 2025-Apr-12 00:00:00.0000, -2.461006166952133E+08, 4.233144466572269E+08, -1.103718132425120E+08,
2460784.500000000, A.D. 2025-Apr-19 00:00:00.0000, -2.538905624107183E+08, 4.179475691524346E+08, -1.116356023857520E+08,
2460791.500000000, A.D. 2025-Apr-26 00:00:00.0000, -2.615827104700730E+08, 4.124200263124396E+08, -1.128564016647129E+08,
2460798.500000000, A.D. 2025-May-03 00:00:00.0000, -2.691738973616922E+08, 4.067336119570523E+08, -1.140336513495953E+08,
2460805.500000000, A.D. 2025-May-10 00:00:00.0000, -2.766609787621619E+08, 4.008901780891629E+08, -1.151668033073235E+08,
2460812.500000000, A.D. 2025-May-17 00:00:00.0000, -2.840408303334277E+08, 3.948916348664079E+08, -1.162553212363975E+08,
2460819.500000000, A.D. 2025-May-24 00:00:00.0000, -2.913103483360570E+08, 3.887399504097409E+08, -1.172986809401164E+08,
2460826.500000000, A.D. 2025-May-31 00:00:00.0000, -2.984664496415638E+08, 3.824371507590096E+08, -1.182963706510880E+08,
2460833.500000000, A.D. 2025-Jun-07 00:00:00.0000, -3.055060715458767E+08, 3.759853211795705E+08, -1.192478912719597E+08,
2460840.500000000, A.D. 2025-Jun-14 00:00:00.0000, -3.124261737496685E+08, 3.693866081531003E+08, -1.201527563705521E+08,
2460847.500000000, A.D. 2025-Jun-21 00:00:00.0000, -3.192237412883959E+08, 3.626432187808736E+08, -1.210104923082644E+08,
2460854.500000000, A.D. 2025-Jun-28 00:00:00.0000, -3.258957852836620E+08, 3.557574193618553E+08, -1.218206386434887E+08,
2460861.500000000, A.D. 2025-Jul-05 00:00:00.0000, -3.324393430344077E+08, 3.487315353006471E+08, -1.225827484947850E+08,
2460868.500000000, A.D. 2025-Jul-12 00:00:00.0000, -3.388514786400897E+08, 3.415679515398428E+08, -1.232963888209538E+08,
2460875.500000000, A.D. 2025-Jul-19 00:00:00.0000, -3.451292839665144E+08, 3.342691129410132E+08, -1.239611406823555E+08,
2460882.500000000, A.D. 2025-Jul-26 00:00:00.0000, -3.512698797446966E+08, 3.268375245565234E+08, -1.245765995071015E+08,
2460889.500000000, A.D. 2025-Aug-02 00:00:00.0000, -3.572704167378474E+08, 3.192757518125517E+08, -1.251423753661222E+08,
2460896.500000000, A.D. 2025-Aug-09 00:00:00.0000, -3.631280769535949E+08, 3.115864205874903E+08, -1.256580932602442E+08,
2460903.500000000, A.D. 2025-Aug-16 00:00:00.0000, -3.688400748249868E+08, 3.037722171213275E+08, -1.261233934312575E+08,
2460910.500000000, A.D. 2025-Aug-23 00:00:00.0000, -3.744036580680736E+08, 2.958358877712360E+08, -1.265379317221493E+08,
2460917.500000000, A.D. 2025-Aug-30 00:00:00.0000, -3.798161078876423E+08, 2.877802393259171E+08, -1.269013799579700E+08,
2460924.500000000, A.D. 2025-Sep-06 00:00:00.0000, -3.850747399502701E+08, 2.796081408775235E+08, -1.272134261354675E+08,
2460931.500000000, A.D. 2025-Sep-13 00:00:00.0000, -3.901769077966117E+08, 2.713225247677742E+08, -1.274737744715838E+08,
2460938.500000000, A.D. 2025-Sep-20 00:00:00.0000, -3.951200054190795E+08, 2.629263849632257E+08, -1.276821457450022E+08,
2460945.500000000, A.D. 2025-Sep-27 00:00:00.0000, -3.999014679455853E+08, 2.544227759689096E+08, -1.278382777723953E+08,
2460952.500000000, A.D. 2025-Oct-04 00:00:00.0000, -4.045187724468265E+08, 2.458148128177299E+08, -1.279419257902264E+08,
2460959.500000000, A.D. 2025-Oct-11 00:00:00.0000, -4.089694392409078E+08, 2.371056711919087E+08, -1.279928627849357E+08,
2460966.500000000, A.D. 2025-Oct-18 00:00:00.0000, -4.132510334106144E+08, 2.282985874008214E+08, -1.279908798192163E+08,
2460973.500000000, A.D. 2025-Oct-25 00:00:00.0000, -4.173611663927615E+08, 2.193968582240460E+08, -1.279357863652173E+08,
2460980.500000000, A.D. 2025-Nov-01 00:00:00.0000, -4.212974975998116E+08, 2.104038406324939E+08, -1.278274106462497E+08,
2460987.500000000, A.D. 2025-Nov-08 00:00:00.0000, -4.250577360395850E+08, 2.013229513537429E+08, -1.276655999925499E+08,
2460994.500000000, A.D. 2025-Nov-15 00:00:00.0000, -4.286396417859558E+08, 1.921576662211515E+08, -1.274502212298075E+08,
2461001.500000000, A.D. 2025-Nov-22 00:00:00.0000, -4.320410268983387E+08, 1.829115195255288E+08, -1.271811611198999E+08,
2461008.500000000, A.D. 2025-Nov-29 00:00:00.0000, -4.352597559432061E+08, 1.735881045030926E+08, -1.268583267473329E+08,
2461015.500000000, A.D. 2025-Dec-06 00:00:00.0000, -4.382937483952461E+08, 1.641910748223247E+08, -1.264816456539732E+08,
2461022.500000000, A.D. 2025-Dec-13 00:00:00.0000, -4.411409824846098E+08, 1.547241436987331E+08, -1.260510660377078E+08,
2461029.500000000, A.D. 2025-Dec-20 00:00:00.0000, -4.437994969951929E+08, 1.451910816598291E+08, -1.255665572509801E+08,
2461036.500000000, A.D. 2025-Dec-27 00:00:00.0000, -4.462673920855220E+08, 1.355957155489101E+08, -1.250281102874751E+08,
2461043.500000000, A.D. 2026-Jan-03 00:00:00.0000, -4.485428305909688E+08, 1.259419281494092E+08, -1.244357381729873E+08,
2461050.500000000, A.D. 2026-Jan-10 00:00:00.0000, -4.506240396972008E+08, 1.162336577494501E+08, -1.237894763259130E+08,
2461057.500000000, A.D. 2026-Jan-17 00:00:00.0000, -4.525093127512504E+08, 1.064748975538625E+08, -1.230893829156546E+08,
2461064.500000000, A.D. 2026-Jan-24 00:00:00.0000, -4.541970111308767E+08, 9.666969496495946E+07, -1.223355392234771E+08,
2461071.500000000, A.D. 2026-Jan-31 00:00:00.0000, -4.556855661473438E+08, 8.682215072322492E+07, -1.215280500078090E+08,
2461078.500000000, A.D. 2026-Feb-07 00:00:00.0000, -4.569734809186197E+08, 7.693641784917945E+07, -1.206670438835678E+08,
2461085.500000000, A.D. 2026-Feb-14 00:00:00.0000, -4.580593319582834E+08, 6.701670036980164E+07, -1.197526737391823E+08,
2461092.500000000, A.D. 2026-Feb-21 00:00:00.0000, -4.589417700905787E+08, 5.706725240514863E+07, -1.187851171787717E+08,
2461099.500000000, A.D. 2026-Feb-28 00:00:00.0000, -4.596195217742201E+08, 4.709237876685292E+07, -1.177645767947135E+08,
2461106.500000000, A.D. 2026-Mar-07 00:00:00.0000, -4.600913928919028E+08, 3.709643511637023E+07, -1.166912802405623E+08,
2461113.500000000, A.D. 2026-Mar-14 00:00:00.0000, -4.603562722284024E+08, 2.708382534898043E+07, -1.155654805490814E+08,
2461120.500000000, A.D. 2026-Mar-21 00:00:00.0000, -4.604131328508731E+08, 1.705899910049662E+07, -1.143874566204125E+08,
2461127.500000000, A.D. 2026-Mar-28 00:00:00.0000, -4.602610333964044E+08, 7.026450402630664E+06, -1.131575136099260E+08,
2461134.500000000, A.D. 2026-Apr-04 00:00:00.0000, -4.598991198676839E+08, -3.009283481980689E+06, -1.118759832381483E+08,
2461141.500000000, A.D. 2026-Apr-11 00:00:00.0000, -4.593266276606374E+08, -1.304362340763086E+07, -1.105432240766224E+08,
2461148.500000000, A.D. 2026-Apr-18 00:00:00.0000, -4.585428836621471E+08, -2.307194988505028E+07, -1.091596218240282E+08,
2461155.500000000, A.D. 2026-Apr-25 00:00:00.0000, -4.575473083689623E+08, -3.308960479981554E+07, -1.077255895746238E+08,
2461162.500000000, A.D. 2026-May-02 00:00:00.0000, -4.563394179938355E+08, -4.309189334109548E+07, -1.062415680833081E+08,
2461169.500000000, A.D. 2026-May-09 00:00:00.0000, -4.549188264308292E+08, -5.307408620853260E+07, -1.047080260432134E+08,
2461176.500000000, A.D. 2026-May-16 00:00:00.0000, -4.532852466981351E+08, -6.303142196022387E+07, -1.031254603981867E+08,
2461183.500000000, A.D. 2026-May-23 00:00:00.0000, -4.514384918024741E+08, -7.295910848056528E+07, -1.014943966102370E+08,
2461190.500000000, A.D. 2026-May-30 00:00:00.0000, -4.493784770992870E+08, -8.285232324975921E+07, -9.981538866413289E+07,
2461197.500000000, A.D. 2026-Jun-06 00:00:00.0000, -4.471052244628148E+08, -9.270621568996967E+07, -9.808901904707676E+07,
2461204.500000000, A.D. 2026-Jun-13 00:00:00.0000, -4.446188645972946E+08, -1.025159113890991E+08, -9.631589902288488E+07,
2461211.500000000, A.D. 2026-Jun-20 00:00:00.0000, -4.419196379851474E+08, -1.122765152747609E+08, -9.449666891383316E+07,
2461218.500000000, A.D. 2026-Jun-27 00:00:00.0000, -4.390078961635822E+08, -1.219831140779111E+08, -9.263199825988385E+07,
2461225.500000000, A.D. 2026-Jul-04 00:00:00.0000, -4.358841033231288E+08, -1.316307788617988E+08, -9.072258591687025E+07,
2461232.500000000, A.D. 2026-Jul-11 00:00:00.0000, -4.325488379683969E+08, -1.412145677492472E+08, -8.876916012658367E+07,
2461239.500000000, A.D. 2026-Jul-18 00:00:00.0000, -4.290027945432615E+08, -1.507295288235540E+08, -8.677247856449614E+07,
2461246.500000000, A.D. 2026-Jul-25 00:00:00.0000, -4.252467849916640E+08, -1.601707032009195E+08, -8.473332836682296E+07,
2461253.500000000, A.D. 2026-Aug-01 00:00:00.0000, -4.212817402020458E+08, -1.695331283222899E+08, -8.265252614503340E+07,
2461260.500000000, A.D. 2026-Aug-08 00:00:00.0000, -4.171087111165439E+08, -1.788118414992518E+08, -8.053091800993103E+07,
2461267.500000000, A.D. 2026-Aug-15 00:00:00.0000, -4.127288690852365E+08, -1.880018832615155E+08, -7.836937960557072E+07,
2461274.500000000, A.D. 2026-Aug-22 00:00:00.0000, -4.081435062208088E+08, -1.970982992821934E+08, -7.616881598199236E+07,
2461281.500000000, A.D. 2026-Aug-29 00:00:00.0000, -4.033540380365113E+08, -2.060961422515292E+08, -7.393016120761427E+07,
2461288.500000000, A.D. 2026-Sep-05 00:00:00.0000, -3.983620062287272E+08, -2.149904765656841E+08, -7.165437815050870E+07,
$$EOE